Satellite: DO-64
Catalog number: 32789
Epoch time:      12341.35073745
Element set:     495
Inclination:      097.7927 deg
RA of node:       041.9840 deg
Eccentricity:    0.0013643
Arg of perigee:   208.9029 deg
Mean anomaly:     151.1431 deg
Mean motion:   14.87167317 rev/day
Decay rate:      3.021e-05 rev/day^2
Epoch rev:           24945
Checksum:              316

Satellite: CO-66
Catalog number: 32791
Epoch time:      12340.69499010
Element set:     472
Inclination:      097.7794 deg
RA of node:       037.6938 deg
Eccentricity:    0.0014586
Arg of perigee:   216.9988 deg
Mean anomaly:     143.0196 deg
Mean motion:   14.84028394 rev/day
Decay rate:      1.003e-05 rev/day^2
Epoch rev:           24917
Checksum:              344

Satellite: RS-30
Catalog number: 32953
Epoch time:      12341.53409193
Element set:     388
Inclination:      082.5006 deg
RA of node:       187.9710 deg
Eccentricity:    0.0018367
Arg of perigee:   294.8789 deg
Mean anomaly:     065.0388 deg
Mean motion:   12.43030198 rev/day
Decay rate:        1.0e-07 rev/day^2
Epoch rev:           20597
Checksum:              311

Satellite: PHARMSAT
Catalog number: 35002
Epoch time:      12226.86484473
Element set:      78
Inclination:      040.4341 deg
RA of node:       050.6671 deg
Eccentricity:    0.0012079
Arg of perigee:   300.9773 deg
Mean anomaly:     059.0492 deg
Mean motion:   16.39309245 rev/day
Decay rate:   7.728342e-02 rev/day^2
Epoch rev:           18355
Checksum:              302

Satellite: METEOR-M
Catalog number: 35865
Epoch time:      12341.55507655
Element set:      29
Inclination:      098.6318 deg
RA of node:       032.4405 deg
Eccentricity:    0.0001721
Arg of perigee:   286.9424 deg
Mean anomaly:     073.1567 deg
Mean motion:   14.21876203 rev/day
Decay rate:       -1.7e-07 rev/day^2
Epoch rev:           16709
Checksum:              292

Satellite: RS-38
Catalog number: 35869
Epoch time:      12341.62020695
Element set:     996
Inclination:      098.6267 deg
RA of node:       032.4675 deg
Eccentricity:    0.0003844
Arg of perigee:   279.2151 deg
Mean anomaly:     080.8596 deg
Mean motion:   14.22103178 rev/day
Decay rate:        2.6e-07 rev/day^2
Epoch rev:           16712
Checksum:              319

Satellite: JUGNU
Catalog number: 37839
Epoch time:      12341.23871090
Element set:     285
Inclination:      019.9606 deg
RA of node:       035.8792 deg
Eccentricity:    0.0018720
Arg of perigee:   320.1217 deg
Mean anomaly:     039.7816 deg
Mean motion:   14.12111710 rev/day
Decay rate:       6.20e-06 rev/day^2
Epoch rev:            5959
Checksum:              283

Satellite: SRMSAT
Catalog number: 37841
Epoch time:      12341.24473927
Element set:     287
Inclination:      019.9702 deg
RA of node:       044.0984 deg
Eccentricity:    0.0012074
Arg of perigee:   276.9428 deg
Mean anomaly:     082.9682 deg
Mean motion:   14.10186498 rev/day
Decay rate:       2.64e-06 rev/day^2
Epoch rev:            5950
Checksum:              315

Satellite: RAX-2
Catalog number: 37853
Epoch time:      12341.89605705
Element set:     364
Inclination:      101.7076 deg
RA of node:       100.8531 deg
Eccentricity:    0.0242142
Arg of perigee:   217.9127 deg
Mean anomaly:     140.4803 deg
Mean motion:   14.81658905 rev/day
Decay rate:      4.904e-05 rev/day^2
Epoch rev:            5995
Checksum:              297

Satellite: AUBIESAT
Catalog number: 37854
Epoch time:      12340.92138398
Element set:     361
Inclination:      101.7080 deg
RA of node:       099.9284 deg
Eccentricity:    0.0243231
Arg of perigee:   219.6797 deg
Mean anomaly:     138.6384 deg
Mean motion:   14.82167547 rev/day
Decay rate:      5.769e-05 rev/day^2
Epoch rev:            5981
Checksum:              340

Satellite: HRBE
Catalog number: 37855
Epoch time:      12341.90122421
Element set:     359
Inclination:      101.7082 deg
RA of node:       101.2450 deg
Eccentricity:    0.0243584
Arg of perigee:   217.1215 deg
Mean anomaly:     141.2923 deg
Mean motion:   14.81951362 rev/day
Decay rate:      5.154e-05 rev/day^2
Epoch rev:            5995
Checksum:              267

Satellite: RS-39
Catalog number: 38051
Epoch time:      12341.65166994
Element set:     957
Inclination:      051.6352 deg
RA of node:       056.0879 deg
Eccentricity:    0.0012282
Arg of perigee:   293.6422 deg
Mean anomaly:     218.4234 deg
Mean motion:   15.27773538 rev/day
Decay rate:      8.093e-05 rev/day^2
Epoch rev:            4830
Checksum:              323

Satellite: E-STAR
Catalog number: 38079
Epoch time:      12341.27781636
Element set:     691
Inclination:      069.4845 deg
RA of node:       278.7261 deg
Eccentricity:    0.0684235
Arg of perigee:   028.3430 deg
Mean anomaly:     335.3198 deg
Mean motion:   14.28607470 rev/day
Decay rate:     5.0257e-04 rev/day^2
Epoch rev:            4203
Checksum:              318

Satellite: GOLIAT
Catalog number: 38085
Epoch time:      12341.26601464
Element set:     667
Inclination:      069.4825 deg
RA of node:       279.7135 deg
Eccentricity:    0.0691662
Arg of perigee:   028.9470 deg
Mean anomaly:     334.8263 deg
Mean motion:   14.27220160 rev/day
Decay rate:     4.6014e-04 rev/day^2
Epoch rev:            4200
Checksum:              293

Satellite: HORYU-2
Catalog number: 38340
Epoch time:      12340.88100522
Element set:     273
Inclination:      098.1953 deg
RA of node:       281.1883 deg
Eccentricity:    0.0013407
Arg of perigee:   141.9395 deg
Mean anomaly:     218.2776 deg
Mean motion:   14.70452861 rev/day
Decay rate:       8.83e-06 rev/day^2
Epoch rev:            2970
Checksum:              299

Satellite: RS-40
Catalog number: 38736
Epoch time:      12341.68445702
Element set:     126
Inclination:      082.4779 deg
RA of node:       275.1512 deg
Eccentricity:    0.0019936
Arg of perigee:   030.9562 deg
Mean anomaly:     329.2689 deg
Mean motion:   12.42648271 rev/day
Decay rate:        1.0e-07 rev/day^2
Epoch rev:            1633
Checksum:              301

Satellite: PROITERES
Catalog number: 38756
Epoch time:      12341.54423935
Element set:     295
Inclination:      098.2760 deg
RA of node:       048.8840 deg
Eccentricity:    0.0012801
Arg of perigee:   005.6000 deg
Mean anomaly:     354.5349 deg
Mean motion:   14.74002037 rev/day
Decay rate:       4.04e-06 rev/day^2
Epoch rev:            1301
Checksum:              261

