DO-64
1 32789U 08021G   12341.35073745  .00003021  00000-0  34146-3 0  4953
2 32789 097.7927 041.9840 0013643 208.9029 151.1431 14.87167317249450
CO-66
1 32791U 08021J   12340.69499010  .00001003  00000-0  12654-3 0  4722
2 32791 097.7794 037.6938 0014586 216.9988 143.0196 14.84028394249170
RS-30
1 32953U 08025A   12341.53409193  .00000010  00000-0  00000 0 0  3884
2 32953 082.5006 187.9710 0018367 294.8789 065.0388 12.43030198205974
PHARMSAT
1 35002U 09028B   12226.86484473  .07728342  73476-5  57159-3 0   789
2 35002 040.4341 050.6671 0012079 300.9773 059.0492 16.39309245183554
METEOR-M
1 35865U 09049A   12341.55507655 -.00000017  00000-0  11894-4 0   298
2 35865 098.6318 032.4405 0001721 286.9424 073.1567 14.21876203167094
RS-38
1 35869U 09049E   12341.62020695  .00000026  00000-0  31037-4 0  9967
2 35869 098.6267 032.4675 0003844 279.2151 080.8596 14.22103178167126
JUGNU
1 37839U 11058B   12341.23871090  .00000620  00000-0  19019-3 0  2855
2 37839 019.9606 035.8792 0018720 320.1217 039.7816 14.12111710 59592
SRMSAT
1 37841U 11058D   12341.24473927  .00000264  00000-0  00000 0 0  2878
2 37841 019.9702 044.0984 0012074 276.9428 082.9682 14.10186498 59500
RAX-2
1 37853U 11061D   12341.89605705  .00004904  00000-0  38360-3 0  3642
2 37853 101.7076 100.8531 0242142 217.9127 140.4803 14.81658905 59957
AUBIESAT
1 37854U 11061E   12340.92138398  .00005769  00000-0  44058-3 0  3613
2 37854 101.7080 099.9284 0243231 219.6797 138.6384 14.82167547 59814
HRBE
1 37855U 11061F   12341.90122421  .00005154  00000-0  39667-3 0  3598
2 37855 101.7082 101.2450 0243584 217.1215 141.2923 14.81951362 59957
RS-39
1 38051U 11062C   12341.65166994  .00008093  00000-0  30606-3 0  9576
2 38051 051.6352 056.0879 0012282 293.6422 218.4234 15.27773538 48306
E-STAR
1 38079U 12006C   12341.27781636  .00050257  00000-0  11683-2 0  6916
2 38079 069.4845 278.7261 0684235 028.3430 335.3198 14.28607470 42036
GOLIAT
1 38085U 12006J   12341.26601464  .00046014  00000-0  10604-2 0  6673
2 38085 069.4825 279.7135 0691662 028.9470 334.8263 14.27220160 42004
HORYU-2
1 38340U 12025D   12340.88100522  .00000883  00000-0  15400-3 0  2731
2 38340 098.1953 281.1883 0013407 141.9395 218.2776 14.70452861 29702
RS-40
1 38736U 12041D   12341.68445702  .00000010  00000-0  00000 0 0  1264
2 38736 082.4779 275.1512 0019936 030.9562 329.2689 12.42648271 16331
PROITERES
1 38756U 12047B   12341.54423935  .00000404  00000-0  69534-4 0  2957
2 38756 098.2760 048.8840 0012801 005.6000 354.5349 14.74002037 13014
